0 SL-8 DEB *
1 14803U 78019D   13282.66899454  .00006151  00000-0  72380-3 0   603
2 14803 074.0325 276.8700 0001117 147.7274 332.3621 14.85041419741897
0 SL-8 DEB *
1 14803U 78019D   13283.68008337  .00006813  00000-0  80098-3 0   619
2 14803 074.0323 274.8623 0001111 143.8507 339.4159 14.85051621742045
0 SL-8 DEB *
1 14803U 78019D   13285.43765815  .00005878  00000-0  69155-3 0   627
2 14803 074.0319 271.3721 0001053 133.3668 022.3314 14.85066897742309
0 SL-8 DEB *
1 14803U 78019D   13286.96390821  .00005275  00000-0  62077-3 0   635
2 14803 074.0316 268.3408 0001040 129.2587 262.7579 14.85084462742530
0 SL-8 DEB *
1 14803U 78019D   13287.97970168  .00009398  00000-0  11016-2 0   642
2 14803 074.0314 266.3232 0001061 122.9821 297.5147 14.85097586742689
0 SL-8 DEB *
1 14803U 78019D   13289.41326405  .00008522  00000-0  99910-3 0   651
2 14803 074.0321 263.4756 0001072 116.9841 044.6797 14.85115455742894
0 SL-8 DEB *
1 14803U 78019D   13290.94472426  .00006797  00000-0  79741-3 0   669
2 14803 074.0324 260.4331 0001061 110.4975 315.6072 14.85139257743128
0 SL-8 DEB *
1 14803U 78019D   13292.02453054  .00006490  00000-0  76149-3 0   676
2 14803 074.0329 258.2885 0001064 104.4782 332.4108 14.85150721743287
0 SL-8 DEB *
1 14803U 78019D   13293.31136284  .00008388  00000-0  98220-3 0   685
2 14803 074.0332 255.7324 0001052 103.2704 010.8753 14.85165728743476
0 SL-8 DEB *
1 14803U 78019D   13294.59200381  .00008827  00000-0  10329-2 0   698
2 14803 074.0333 253.1888 0001081 097.1236 021.2604 14.85183513743661
0 SL-8 DEB *
1 14803U 78019D   13295.92725234  .00008437  00000-0  98714-3 0   709
2 14803 074.0333 250.5371 0001096 093.7619 320.7906 14.85201055743868
